{"type": "FeatureCollection", "features": [{"type": "Feature", "properties": {"name": "El Paso Electric", "mapUrl": "https://outagemap.epelectric.com/"}, "geometry": {"type": "Polygon", "coordinates": [[[-106.13488400889, 32.0024489213807], [-104.024521921949, 32.0000100454273], [-104.102365040314, 31.1051750407955], [-104.293599991846, 31.0042209358476], [-104.979675974267, 30.6292189167197], [-104.981903354856, 30.6300840078707], [-104.986004983743, 30.6626889412417], [-104.993043994485, 30.6649240748862], [-104.99376402409, 30.6685040007591], [-105.001468076291, 30.6726869598354], [-105.001993056434, 30.6808539839243], [-105.006527004717, 30.6860469572014], [-105.01310304447, 30.6825880387071], [-105.017887365809, 30.6850910156379], [-105.027237055945, 30.6789079985054], [-105.040727921756, 30.6889840710581], [-105.047205015399, 30.6880340587249], [-105.044390468345, 30.6836845371117], [-105.045917287852, 30.6799002888673], [-105.048415372471, 30.6824630140569], [-105.055338946235, 30.6822639590146], [-105.054205919168, 30.6850899256596], [-105.056707374446, 30.6878690142437], [-105.06177392103, 30.685852074114], [-105.062568995463, 30.6985970044482], [-105.066894377473, 30.699261016183], [-105.068443055003, 30.7038559969567], [-105.080831981511, 30.6998319858575], [-105.082601380549, 30.7020930154803], [-105.079408969848, 30.704256959691], [-105.080129000353, 30.7077730390945], [-105.087402003, 30.7098779733898], [-105.087537051494, 30.7155449496398], [-105.098188385286, 30.716484018123], [-105.09963138618, 30.7219580187476], [-105.105556386918, 30.7238130188558], [-105.103343945866, 30.7292539298251], [-105.106754059952, 30.7322719394984], [-105.108814387874, 30.730092019731], [-105.111834389545, 30.7332660204106], [-105.109805997449, 30.7393320087652], [-105.112220389359, 30.7405070215818], [-105.110948050112, 30.7436540264122], [-105.113929956502, 30.7460639873632], [-105.116982060374, 30.7430329420167], [-105.120452391265, 30.7438580214306], [-105.118312978761, 30.7498509974257], [-105.127276080926, 30.7478759288311], [-105.143780397747, 30.7552100224246], [-105.151985399307, 30.7514670215858], [-105.156855399957, 30.7539770222219], [-105.161419000686, 30.7521620122671], [-105.156200401228, 30.7697780242365], [-105.162816941948, 30.7707659591817], [-105.166990039958, 30.7766259794055], [-105.174061976679, 30.7675310060511], [-105.176610405346, 30.7679800231596], [-105.182172007132, 30.7763099216656], [-105.184959031334, 30.7771280610112], [-105.186007987978, 30.7845740527504], [-105.190826070766, 30.785792989355], [-105.19520041097, 30.7923090272399], [-105.199801411806, 30.7877360258969], [-105.206529006209, 30.7863769695216], [-105.209096348518, 30.7826618989275], [-105.216353034765, 30.7833499351514], [-105.219957029193, 30.7889779680588], [-105.217541050879, 30.7932150798121], [-105.213111062426, 30.7931769719398], [-105.209608020494, 30.7976149841443], [-105.215064067952, 30.8059349388464], [-105.227452417995, 30.7991960264755], [-105.229771029409, 30.8037340684725], [-105.238187421113, 30.8036650266197], [-105.257169425029, 30.7943590246493], [-105.264242040738, 30.8004780550183], [-105.266768998091, 30.8084189418807], [-105.27170342887, 30.8093870269898], [-105.275808429316, 30.8070080260996], [-105.279410430847, 30.8157030277725], [-105.282523431411, 30.8182840280855], [-105.28796243312, 30.8178820275336], [-105.291804434027, 30.826198028816], [-105.300145435563, 30.8247760279913], [-105.30060868894, 30.8190723953748], [-105.306180968377, 30.8098328344178], [-105.308871436867, 30.8110940256688], [-105.309372437488, 30.8170450267067], [-105.316485162061, 30.8109072715534], [-105.319103439272, 30.812264024765], [-105.315967439446, 30.8187220267002], [-105.318885304213, 30.8239777627636], [-105.318188440244, 30.827821028118], [-105.324601441903, 30.8283080280931], [-105.327065985407, 30.8247070275074], [-105.329306442139, 30.824980026607], [-105.327834442605, 30.8310920278748], [-105.337201444691, 30.8334860276581], [-105.339302445352, 30.8404800291301], [-105.345764446572, 30.8406170291526], [-105.352180953788, 30.8359360156347], [-105.353193448319, 30.8420260284785], [-105.359799932821, 30.8460570488937], [-105.361601451146, 30.8505500303597], [-105.370920046323, 30.8475277066384], [-105.375056453792, 30.8499700296932], [-105.377621975873, 30.8488142659656], [-105.377075454269, 30.85126702925], [-105.384819967867, 30.8506979661383], [-105.387339070542, 30.8537669511839], [-105.394850077869, 30.849235008389], [-105.399642922982, 30.8521729568166], [-105.401288060895, 30.8548070504051], [-105.39460004026, 30.8584800713982], [-105.394969459273, 30.8711990320098], [-105.391308458618, 30.8738580323224], [-105.40431246205, 30.8796810328535], [-105.39914146101, 30.8842600344731], [-105.400008955149, 30.8892690370365], [-105.403794961568, 30.8921379580004], [-105.412056919891, 30.8885979782142], [-105.41056146424, 30.8920530350196], [-105.413811464827, 30.8995720364204], [-105.425834694615, 30.9004066297622], [-105.43004396156, 30.9055780139142], [-105.441167471801, 30.9084540368244], [-105.446853473209, 30.9196080385802], [-105.452971474754, 30.9160720373947], [-105.454404475186, 30.9193500374743], [-105.451462474414, 30.9210460383441], [-105.451613475082, 30.9248320384679], [-105.464836477821, 30.9258620383025], [-105.466780478436, 30.9242840383777], [-105.470803479597, 30.9337170399095], [-105.475933999454, 30.9338669308142], [-105.479913048948, 30.93966193545], [-105.487911933089, 30.9429620723418], [-105.493737485896, 30.9494660413248], [-105.498699487192, 30.9501920415295], [-105.49681948683, 30.9554250418323], [-105.493902486311, 30.9564290422666], [-105.50197748817, 30.96774204416], [-105.515769969508, 30.9649199742774], [-105.521808493467, 30.9762910444962], [-105.527092494323, 30.9781830445119], [-105.532799978736, 30.9847809647698], [-105.543027677885, 30.9846490872856], [-105.557665076782, 30.9902189628349], [-105.570105505665, 31.0082080477632], [-105.569258928856, 31.01609106595], [-105.571264081572, 31.0187589209875], [-105.577925026319, 31.0200470523296], [-105.581227002324, 31.0267160199284], [-105.579480077344, 31.0355029583949], [-105.585003511903, 31.0569690552777], [-105.595694582239, 31.0648577230056], [-105.598376516163, 31.0743230578629], [-105.604476517777, 31.0837490590719], [-105.627197934237, 31.0984739826882], [-105.641838526627, 31.0983380600535], [-105.64882507092, 31.1158850670423], [-105.710535538884, 31.1369800739713], [-105.71691654896, 31.1413103393008], [-105.719540928971, 31.1491610439471], [-105.742287054304, 31.1648260387907], [-105.762564134127, 31.1640909500373], [-105.772946987913, 31.1667240561703], [-105.780039562276, 31.1827450683303], [-105.779464028542, 31.190716025824], [-105.783147076976, 31.1980380019523], [-105.794707738671, 31.2027665077682], [-105.836780945884, 31.2482129523659], [-105.853823583392, 31.2725260807141], [-105.86930358769, 31.2889600822421], [-105.875904072815, 31.2916699643974], [-105.894155593406, 31.2907540822351], [-105.907665948425, 31.3124410202369], [-105.931532512116, 31.3127783037758], [-105.937903604468, 31.3182280847583], [-105.947761607612, 31.3395940879968], [-105.945752987111, 31.3529990262841], [-105.953928034052, 31.3648689891126], [-105.970055614075, 31.3659820908009], [-106.005213950264, 31.3926170483381], [-106.081674640672, 31.3992280915033], [-106.107486938871, 31.4222800061174], [-106.132300653253, 31.425086094148], [-106.157315638606, 31.4376565739918], [-106.174047918277, 31.4546629652237], [-106.207004897558, 31.4665773338769], [-106.218674120914, 31.4795621241927], [-106.225237061141, 31.5017239698853], [-106.23723368089, 31.5138631042989], [-106.246487970044, 31.5416899738133], [-106.280750059867, 31.5620789526816], [-106.288667046347, 31.5869679520094], [-106.300898701214, 31.6096291165905], [-106.303347932861, 31.6221290769953], [-106.334444711254, 31.6635601242004], [-106.3495747165, 31.6967171288924], [-106.372379722246, 31.7125741307916], [-106.379878015858, 31.7309590514191], [-106.414270734007, 31.750233135351], [-106.435116073848, 31.7551270174979], [-106.45143974295, 31.7644321354347], [-106.467565746462, 31.7592151340712], [-106.473216747155, 31.750498132283], [-106.484651749279, 31.7478141317168], [-106.490558750986, 31.7489291309747], [-106.506094004235, 31.7607829617643], [-106.510069755914, 31.7612631322878], [-106.5136967568, 31.7707161338425], [-106.521135073725, 31.7739830084092], [-106.528507760824, 31.7815021348157], [-106.527411760644, 31.7900161362357], [-106.53280476203, 31.7924491369182], [-106.536014763471, 31.7985111376789], [-106.547149766149, 31.8073041384753], [-106.566481770917, 31.8134381380597], [-106.570953772099, 31.8102111376339], [-106.577253773043, 31.8104111378638], [-106.589070776595, 31.8227131386005], [-106.602815780024, 31.8250231390067], [-106.605306780683, 31.8277251395036], [-106.602052780811, 31.8444111418607], [-106.614797783091, 31.8464181417839], [-106.625782786047, 31.8561701427379], [-106.628182787006, 31.8611251437105], [-106.635931789121, 31.8662421440598], [-106.634883789355, 31.8744821454347], [-106.629200788985, 31.8837041471288], [-106.63393179042, 31.8891851480762], [-106.645593793119, 31.8953331483062], [-106.645487793627, 31.8986741485932], [-106.640071792979, 31.9052781500666], [-106.611856787761, 31.9200081539532], [-106.623941790181, 31.9253391542786], [-106.628663791201, 31.923613153824], [-106.629751791912, 31.9265721535821], [-106.622538790233, 31.9348681557408], [-106.623668791082, 31.9455151574986], [-106.615262790146, 31.948970158546], [-106.614330789434, 31.9516201584436], [-106.614384790126, 31.9559961596951], [-106.622827791869, 31.9528961588307], [-106.625132792045, 31.9545351588706], [-106.62430779267, 31.961061159445], [-106.61938079209, 31.9647821601686], [-106.619578792227, 31.9715821616875], [-106.630111794124, 31.9712631613659], [-106.638202796722, 31.9768291617365], [-106.639545797501, 31.980348162138], [-106.63119579555, 31.9898151643384], [-106.62357779408, 31.9910031642647], [-106.619458793888, 31.9947401657261], [-106.618495793546, 32.0005001660498], [-106.13488400889, 32.0024489213807]]]}}]}